NORAD_CAT_ID,OBJECT_NAME,OBJECT_TYPE,EPOCH,MEAN_MOTION,ECCENTRICITY,INCLINATION,RA_OF_ASC_NODE,ARG_OF_PERICENTER,MEAN_ANOMALY,BSTAR,MEAN_MOTION_DOT,MEAN_MOTION_DDOT,TLE_LINE0,TLE_LINE1,TLE_LINE2,SEMIMAJOR_AXIS,PERIOD,APOGEE,PERIGEE,DECAYED
51998.0,STARLINK-3618,PAYLOAD,2024-06-04 21:42:26,15.08848428,0.0001956,53.2086,24.6917,99.1921,260.9293,0.00022629,3.316e-05,0.0,0 STARLINK-3618,1 51998U 22025AU  24156.90446866  .00003316  00000-0  22629-3 0  9991,2 51998  53.2086  24.6917 0001956  99.1921 260.9293 15.08848428123880,6917.855,95.437,541.073,538.366,0.0
51998.0,STARLINK-3618,PAYLOAD,2024-06-05 15:11:41,15.08838817,0.000175,53.2096,21.4209,99.8365,260.2825,-3.1697e-05,-7.93e-06,0.0,0 STARLINK-3618,1 51998U 22025AU  24157.63311347 -.00000793  00000-0 -31697-4 0  9991,2 51998  53.2096  21.4209 0001750  99.8365 260.2825 15.08838817123998,6917.884,95.438,540.96,538.538,0.0
51998.0,STARLINK-3618,PAYLOAD,2024-06-05 21:33:13,15.08837558,0.0001784,53.2128,20.2341,89.4428,270.6769,-2.891e-05,-7.48e-06,0.0,0 STARLINK-3618,1 51998U 22025AU  24157.89807533 -.00000748  00000-0 -28910-4 0  9990,2 51998  53.2128  20.2341 0001784  89.4428 270.6769 15.08837558125546,6917.888,95.438,540.987,538.519,0.0
51998.0,STARLINK-3618,PAYLOAD,2024-06-07 14:53:15,15.08835629,0.000115,53.2177,12.5028,97.5126,262.5997,1.0635e-05,-1.19e-06,0.0,0 STARLINK-3618,1 51998U 22025AU  24159.62031705 -.00000119  00000-0  10635-4 0  9999,2 51998  53.2177  12.5028 0001150  97.5126 262.5997 15.08835629124299,6917.894,95.438,540.554,538.963,0.0
51998.0,STARLINK-3618,PAYLOAD,2024-06-07 21:14:47,15.08847392,7.47e-05,53.2167,11.3119,75.1332,284.9743,0.00023855,3.512e-05,0.0,0 STARLINK-3618,1 51998U 22025AU  24159.88527399  .00003512  00000-0  23855-3 0  9992,2 51998  53.2167  11.3119 0000747  75.1332 284.9743 15.08847392125847,6917.858,95.437,540.24,539.206,0.0
51998.0,STARLINK-3618,PAYLOAD,2024-06-08 14:44:02,15.08837971,0.0001511,53.2239,8.0433,95.2376,264.8789,0.00014952,2.092e-05,0.0,0 STARLINK-3618,1 51998U 22025AU  24160.61391666  .00002092  00000-0  14952-3 0  9991,2 51998  53.2239   8.0433 0001511  95.2376 264.8789 15.08837971124444,6917.887,95.438,540.797,538.706,0.0
51998.0,STARLINK-3618,PAYLOAD,2024-06-08 21:05:34,15.08840453,6.26e-05,53.2151,6.8503,24.6866,335.4156,0.00028762,4.293e-05,0.0,0 STARLINK-3618,1 51998U 22025AU  24160.87887302  .00004293  00000-0  28762-3 0  9995,2 51998  53.2151   6.8503 0000626  24.6866 335.4156 15.08840453125990,6917.879,95.438,540.177,539.311,0.0
51998.0,STARLINK-3618,PAYLOAD,2024-06-09 00:16:20,15.08843915,8.19e-05,53.2165,6.257,69.5799,290.5281,0.000264,3.917e-05,0.0,0 STARLINK-3618,1 51998U 22025AU  24161.01135205  .00003917  00000-0  26400-3 0  9999,2 51998  53.2165   6.2570 0000819  69.5799 290.5281 15.08843915124502,6917.868,95.437,540.3,539.167,0.0
51998.0,STARLINK-3618,PAYLOAD,2024-06-09 20:56:22,15.08831788,0.0001109,53.2156,2.392,83.9737,276.1381,-0.00013351,-2.411e-05,0.0,0 STARLINK-3618,1 51998U 22025AU  24161.87248211 -.00002411  00000-0 -13351-3 0  9996,2 51998  53.2156   2.3920 0001109  83.9737 276.1381 15.08831788126141,6917.905,95.438,540.538,539.003,0.0
51998.0,STARLINK-3618,PAYLOAD,2024-06-10 12:50:13,15.08835141,0.0001176,53.217,359.4175,88.7495,271.3632,0.00014265,1.983e-05,0.0,0 STARLINK-3618,1 51998U 22025AU  24162.53488341  .00001983  00000-0  14265-3 0  9996,2 51998  53.2170 359.4175 0001176  88.7495 271.3632 15.08835141124739,6917.895,95.438,540.574,538.947,0.0
51998.0,STARLINK-3618,PAYLOAD,2024-06-10 20:47:09,15.08850335,0.0001116,53.2174,357.9317,83.9094,276.2025,0.00022129,3.237e-05,0.0,0 STARLINK-3618,1 51998U 22025AU  24162.86607660  .00003237  00000-0  22129-3 0  9991,2 51998  53.2174 357.9317 0001116  83.9094 276.2025 15.08850335126295,6917.849,95.437,540.486,538.942,0.0
51998.0,STARLINK-3618,PAYLOAD,2024-06-11 06:19:28,15.08842316,0.0001499,53.2191,356.1464,75.7387,284.3772,0.00025176,3.721e-05,0.0,0 STARLINK-3618,1 51998U 22025AU  24163.26352244  .00003721  00000-0  25176-3 0  9994,2 51998  53.2191 356.1464 0001499  75.7387 284.3772 15.08842316124844,6917.873,95.437,540.775,538.701,0.0
51998.0,STARLINK-3618,PAYLOAD,2024-06-11 22:13:19,15.08847333,0.0001292,53.2179,353.1727,88.6188,271.4952,0.00021266,3.099e-05,0.0,0 STARLINK-3618,1 51998U 22025AU  24163.92591879  .00003099  00000-0  21266-3 0  9990,2 51998  53.2179 353.1727 0001292  88.6188 271.4952 15.08847333126452,6917.858,95.437,540.617,538.829,0.0
51998.0,STARLINK-3618,PAYLOAD,2024-06-12 06:10:15,15.08841548,0.0001294,53.2159,351.6864,84.7847,275.3293,0.00010343,1.359e-05,0.0,0 STARLINK-3618,1 51998U 22025AU  24164.25712150  .00001359  00000-0  10343-3 0  9995,2 51998  53.2159 351.6864 0001294  84.7847 275.3293 15.08841548126505,6917.876,95.437,540.636,538.845,0.0
51998.0,STARLINK-3618,PAYLOAD,2024-06-12 18:53:20,15.08836133,0.0001412,53.2174,349.3054,98.7925,261.3227,9.1977e-05,1.176e-05,0.0,0 STARLINK-3618,1 51998U 22025AU  24164.78704499  .00001176  00000-0  91977-4 0  9990,2 51998  53.2174 349.3054 0001412  98.7925 261.3227 15.08836133126585,6917.892,95.438,540.734,538.78,0.0
51998.0,STARLINK-3618,PAYLOAD,2024-06-12 22:04:06,15.08838595,0.0001486,53.2178,348.711,101.7941,258.3218,-7.0737e-05,-1.414e-05,0.0,0 STARLINK-3618,1 51998U 22025AU  24164.91952338 -.00001414  00000-0 -70737-4 0  9990,2 51998  53.2178 348.7110 0001486 101.7941 258.3218 15.08838595125094,6917.885,95.438,540.778,538.722,0.0
51998.0,STARLINK-3618,PAYLOAD,2024-06-13 12:22:34,15.08844942,0.0001222,53.2185,346.0374,89.235,270.8782,0.00013929,1.93e-05,0.0,0 STARLINK-3618,1 51998U 22025AU  24165.51567766  .00001930  00000-0  13929-3 0  9994,2 51998  53.2185 346.0374 0001222  89.2350 270.8782 15.08844942126692,6917.865,95.437,540.576,538.885,0.0
51998.0,STARLINK-3618,PAYLOAD,2024-06-13 21:54:50,15.08874581,0.0001327,53.2176,344.2509,92.845,267.2694,0.00037354,5.667e-05,0.0,0 STARLINK-3618,1 51998U 22025AU  24165.91308710  .00005667  00000-0  37354-3 0  9999,2 51998  53.2176 344.2509 0001327  92.8450 267.2694 15.08874581125243,6917.775,95.435,540.558,538.722,0.0
51998.0,STARLINK-3618,PAYLOAD,2024-06-14 12:13:22,15.0882625,0.0001107,53.2182,341.5768,104.0427,256.0688,1.1775e-05,-1e-06,0.0,0 STARLINK-3618,1 51998U 22025AU  24166.50928679 -.00000100  00000-0  11775-4 0  9995,2 51998  53.2182 341.5768 0001107 104.0427 256.0688 15.08826250125332,6917.922,95.438,540.553,539.022,0.0
51998.0,STARLINK-3618,PAYLOAD,2024-06-14 18:34:55,15.08821409,9.92e-05,53.2183,340.3875,96.9199,263.1906,-2.5878e-05,-6.99e-06,0.0,0 STARLINK-3618,1 51998U 22025AU  24166.77425356 -.00000699  00000-0 -25878-4 0  9991,2 51998  53.2183 340.3875 0000992  96.9199 263.1906 15.08821409125372,6917.937,95.439,540.488,539.116,0.0
51998.0,STARLINK-3618,PAYLOAD,2024-06-15 12:04:09,15.08849086,8.25e-05,53.2169,337.1144,78.7898,281.3187,-0.00025361,-4.323e-05,0.0,0 STARLINK-3618,1 51998U 22025AU  24167.50288613 -.00004323  00000-0 -25361-3 0  9990,2 51998  53.2169 337.1144 0000825  78.7898 281.3187 15.08849086126991,6917.853,95.437,540.288,539.147,0.0
51998.0,STARLINK-3618,PAYLOAD,2024-06-15 18:25:40,15.08850607,9.86e-05,53.2169,335.9287,97.8423,262.2681,-0.00010016,-1.882e-05,0.0,0 STARLINK-3618,1 51998U 22025AU  24167.76783547 -.00001882  00000-0 -10016-3 0  9992,2 51998  53.2169 335.9287 0000986  97.8423 262.2681 15.08850607125525,6917.848,95.437,540.395,539.031,0.0
51998.0,STARLINK-3618,PAYLOAD,2024-06-16 11:54:56,15.08838545,9.93e-05,53.2181,332.6584,99.9741,260.1363,0.00029181,4.359e-05,0.0,0 STARLINK-3618,1 51998U 22025AU  24168.49648598  .00004359  00000-0  29181-3 0  9992,2 51998  53.2181 332.6584 0000993  99.9741 260.1363 15.08838545127148,6917.885,95.438,540.437,539.063,0.0
51998.0,STARLINK-3618,PAYLOAD,2024-06-16 19:51:51,15.08847032,0.0001017,53.2182,331.1716,95.9526,264.1582,0.00041233,6.282e-05,0.0,0 STARLINK-3618,1 51998U 22025AU  24168.82768446  .00006282  00000-0  41233-3 0  9993,2 51998  53.2182 331.1716 0001017  95.9526 264.1582 15.08847032125680,6917.859,95.437,540.427,539.02,0.0
51998.0,STARLINK-3618,PAYLOAD,2024-06-17 11:45:43,15.08837831,0.000116,53.2185,328.1975,95.9684,264.1441,2.2179e-05,6.5e-07,0.0,0 STARLINK-3618,1 51998U 22025AU  24169.49008686  .00000065  00000-0  22179-4 0  9992,2 51998  53.2185 328.1975 0001160  95.9684 264.1441 15.08837831127299,6917.887,95.438,540.554,538.95,0.0
51998.0,STARLINK-3618,PAYLOAD,2024-06-18 14:47:16,15.08841046,0.0001188,53.2186,323.142,83.2579,276.8549,0.00014597,2.036e-05,0.0,0 STARLINK-3618,1 51998U 22025AU  24170.61616861  .00002036  00000-0  14597-3 0  9992,2 51998  53.2186 323.1420 0001188  83.2579 276.8549 15.08841046125956,6917.877,95.437,540.564,538.92,0.0
51998.0,STARLINK-3618,PAYLOAD,2024-06-18 19:33:26,15.08847076,0.0001051,53.2172,322.2486,91.3997,268.7115,0.00020847,3.032e-05,0.0,0 STARLINK-3618,1 51998U 22025AU  24170.81488527  .00003032  00000-0  20847-3 0  9992,2 51998  53.2172 322.2486 0001051  91.3997 268.7115 15.08847076127495,6917.859,95.437,540.451,538.997,0.0
51998.0,STARLINK-3618,PAYLOAD,2024-06-19 03:30:22,15.08838594,8.8e-05,53.2187,320.7624,92.1148,267.9945,7.9356e-05,9.75e-06,0.0,0 STARLINK-3618,1 51998U 22025AU  24171.14608925  .00000975  00000-0  79356-4 0  9998,2 51998  53.2187 320.7624 0000880  92.1148 267.9945 15.08838594127547,6917.885,95.438,540.358,539.141,0.0
51998.0,STARLINK-3618,PAYLOAD,2024-06-19 14:38:04,15.0883842,0.0001123,53.2161,318.6801,96.5252,263.5868,8.6162e-05,1.084e-05,0.0,0 STARLINK-3618,1 51998U 22025AU  24171.60977155  .00001084  00000-0  86162-4 0  9998,2 51998  53.2161 318.6801 0001123  96.5252 263.5868 15.08838420126102,6917.885,95.438,540.527,538.973,0.0
51998.0,STARLINK-3618,PAYLOAD,2024-06-19 16:13:27,15.08838731,0.0001118,53.2155,318.3822,100.0606,260.0512,9.4454e-05,1.216e-05,0.0,0 STARLINK-3618,1 51998U 22025AU  24171.67601134  .00001216  00000-0  94454-4 0  9996,2 51998  53.2155 318.3822 0001118 100.0606 260.0512 15.08838731126117,6917.884,95.438,540.523,538.976,0.0
